IRIDIUM 144             
1 43249U 18030A   24082.59008643  .00000103  00000+0  29772-4 0  9999
2 43249  86.3909 271.6675 0002176  91.3471 268.7974 14.34218520313093
IRIDIUM 149             
1 43250U 18030B   24082.59643135  .00000066  00000+0  16347-4 0  9994
2 43250  86.3909 271.6403 0002147  88.6773 271.4668 14.34218206313111
IRIDIUM 157             
1 43251U 18030C   24082.61545577  .00000071  00000+0  18437-4 0  9997
2 43251  86.3911 271.6680 0001849  95.4035 264.7371 14.34217674313098
IRIDIUM 140             
1 43252U 18030D   24082.56471536  .00000128  00000+0  38808-4 0  9992
2 43252  86.3911 271.7038 0002446  89.8054 270.3422 14.34218490313142
IRIDIUM 145             
1 43253U 18030E   24082.62179848  .00000011  00000+0 -30652-5 0  9993
2 43253  86.3909 271.6536 0002218  84.2596 275.8853 14.34217584313083
IRIDIUM 146             
1 43254U 18030F   24082.60277109  .00000052  00000+0  11649-4 0  9999
2 43254  86.3910 271.6768 0002316  85.3209 274.8251 14.34218054313090
IRIDIUM 148             
1 43255U 18030G   24082.57105685  .00000207  00000+0  66819-4 0  9996
2 43255  86.3912 271.7211 0001985  82.4138 277.7283 14.34219528313125
IRIDIUM 142             
1 43256U 18030H   24082.60911390  .00000037  00000+0  62533-5 0  9990
2 43256  86.3909 271.6236 0002176  84.6693 275.4751 14.34217686313095
